{"type": "FeatureCollection", "features": [ {"type": "Feature", "properties": {"norad_id": 35018, "name": "COSMOS 2251 DEB", "group": "cosmos-2251-debris", "lat": 13.71198125768821, "lon": -77.11865147257896, "alt_km": 1230.964789852449, "timestamp": "2025-12-14T14:39:29.764874+00:00", "meta": {"OBJECT_NAME": "COSMOS 2251 DEB", "OBJECT_ID": "1993-036AGF", "EPOCH": "2025-12-11T15:37:13.751904", "MEAN_MOTION": 13.67111419, "ECCENTRICITY": 0.03485154, "INCLINATION": 73.9756, "RA_OF_ASC_NODE": 111.7752, "ARG_OF_PERICENTER": 21.1953, "MEAN_ANOMALY": 340.32, "EPHEMERIS_TYPE": 0, "CLASSIFICATION_TYPE": "U", "NORAD_CAT_ID": 35018, "ELEMENT_SET_NO": 999, "REV_AT_EPOCH": 83171, "BSTAR": 0.0010764193, "MEAN_MOTION_DOT": 1.351e-05, "MEAN_MOTION_DDOT": 0}, "tle": {"line1": "1 35018U 93036AGF 25345.65085361  .00001351  00000+0  10764-2 0  9990", "line2": "2 35018  73.9756 111.7752 0348515  21.1953 340.3200 13.67111419831713"}}, "geometry": {"type": "Point", "coordinates": [-77.11865147257896, 13.71198125768821]}}, {"type": "Feature", "properties": {"norad_id": 35020, "name": "COSMOS 2251 DEB", "group": "cosmos-2251-debris", "lat": 72.9843720835982, "lon": -95.44650855789736, "alt_km": 722.0070452327172, "timestamp": "2025-12-14T14:39:29.764885+00:00", "meta": {"OBJECT_NAME": "COSMOS 2251 DEB", "OBJECT_ID": "1993-036AGH", "EPOCH": "2025-12-13T23:30:11.436192", "MEAN_MOTION": 14.62807678, "ECCENTRICITY": 0.00911998, "INCLINATION": 74.0461, "RA_OF_ASC_NODE": 196.573, "ARG_OF_PERICENTER": 310.4261, "MEAN_ANOMALY": 48.8974, "EPHEMERIS_TYPE": 0, "CLASSIFICATION_TYPE": "U", "NORAD_CAT_ID": 35020, "ELEMENT_SET_NO": 999, "REV_AT_EPOCH": 88256, "BSTAR": 0.00019069928, "MEAN_MOTION_DOT": 9.99e-06, "MEAN_MOTION_DDOT": 0}, "tle": {"line1": "1 35020U 93036AGH 25347.97929903  .00000999  00000+0  19070-3 0  9996", "line2": "2 35020  74.0461 196.5730 0091199 310.4261  48.8974 14.62807678882569"}}, "geometry": {"type": "Point", "coordinates": [-95.44650855789736, 72.9843720835982]}}, {"type": "Feature", "properties": {"norad_id": 35022, "name": "COSMOS 2251 DEB", "group": "cosmos-2251-debris", "lat": 55.09969061123633, "lon": 114.11312511292833, "alt_km": 658.2170956383543, "timestamp": "2025-12-14T14:39:29.764894+00:00", "meta": {"OBJECT_NAME": "COSMOS 2251 DEB", "OBJECT_ID": "1993-036AGK", "EPOCH": "2025-12-13T05:13:57.662400", "MEAN_MOTION": 14.60837478, "ECCENTRICITY": 0.0046712, "INCLINATION": 74.027, "RA_OF_ASC_NODE": 321.0157, "ARG_OF_PERICENTER": 160.7874, "MEAN_ANOMALY": 199.5067, "EPHEMERIS_TYPE": 0, "CLASSIFICATION_TYPE": "U", "NORAD_CAT_ID": 35022, "ELEMENT_SET_NO": 999, "REV_AT_EPOCH": 59150, "BSTAR": 0.00067238306, "MEAN_MOTION_DOT": 3.308e-05, "MEAN_MOTION_DDOT": 0}, "tle": {"line1": "1 35022U 93036AGK 25347.21802850  .00003308  00000+0  67238-3 0  9992", "line2": "2 35022  74.0270 321.0157 0046712 160.7874 199.5067 14.60837478591501"}}, "geometry": {"type": "Point", "coordinates": [114.11312511292833, 55.09969061123633]}}, {"type": "Feature", "properties": {"norad_id": 35023, "name": "COSMOS 2251 DEB", "group": "cosmos-2251-debris", "lat": 12.391880555196211, "lon": 25.207612904394967, "alt_km": 594.2306635497571, "timestamp": "2025-12-14T14:39:29.764904+00:00", "meta": {"OBJECT_NAME": "COSMOS 2251 DEB", "OBJECT_ID": "1993-036AGL", "EPOCH": "2025-12-13T21:54:53.467776", "MEAN_MOTION": 14.95158458, "ECCENTRICITY": 0.00339814, "INCLINATION": 74.0378, "RA_OF_ASC_NODE": 210.2197, "ARG_OF_PERICENTER": 287.8311, "MEAN_ANOMALY": 85.9527, "EPHEMERIS_TYPE": 0, "CLASSIFICATION_TYPE": "U", "NORAD_CAT_ID": 35023, "ELEMENT_SET_NO": 999, "REV_AT_EPOCH": 88297, "BSTAR": 0.0015766219, "MEAN_MOTION_DOT": 0.00017517, "MEAN_MOTION_DDOT": 0}, "tle": {"line1": "1 35023U 93036AGL 25347.91311884  .00017517  00000+0  15766-2 0  9997", "line2": "2 35023  74.0378 210.2197 0033981 287.8311  85.9527 14.95158458882970"}}, "geometry": {"type": "Point", "coordinates": [25.207612904394967, 12.391880555196211]}}, {"type": "Feature", "properties": {"norad_id": 35025, "name": "COSMOS 2251 DEB", "group": "cosmos-2251-debris", "lat": 73.80428033175116, "lon": 156.55307578784564, "alt_km": 674.873313500726, "timestamp": "2025-12-14T14:39:29.764915+00:00", "meta": {"OBJECT_NAME": "COSMOS 2251 DEB", "OBJECT_ID": "1993-036AGN", "EPOCH": "2025-12-12T21:29:10.280832", "MEAN_MOTION": 14.72710298, "ECCENTRICITY": 0.00851917, "INCLINATION": 73.9386, "RA_OF_ASC_NODE": 62.6223, "ARG_OF_PERICENTER": 335.4034, "MEAN_ANOMALY": 24.3084, "EPHEMERIS_TYPE": 0, "CLASSIFICATION_TYPE": "U", "NORAD_CAT_ID": 35025, "ELEMENT_SET_NO": 999, "REV_AT_EPOCH": 88645, "BSTAR": 0.00059100311, "MEAN_MOTION_DOT": 3.96e-05, "MEAN_MOTION_DDOT": 0}, "tle": {"line1": "1 35025U 93036AGN 25346.89525788  .00003960  00000+0  59100-3 0  9993", "line2": "2 35025  73.9386  62.6223 0085191 335.4034  24.3084 14.72710298886453"}}, "geometry": {"type": "Point", "coordinates": [156.55307578784564, 73.80428033175116]}}, {"type": "Feature", "properties": {"norad_id": 35026, "name": "COSMOS 2251 DEB", "group": "cosmos-2251-debris", "lat": -13.186242240294147, "lon": 139.1135432079, "alt_km": 751.4840782537149, "timestamp": "2025-12-14T14:39:29.764925+00:00", "meta": {"OBJECT_NAME": "COSMOS 2251 DEB", "OBJECT_ID": "1993-036AGP", "EPOCH": "2025-12-13T06:41:51.254880", "MEAN_MOTION": 14.53623986, "ECCENTRICITY": 0.00823222, "INCLINATION": 74.0467, "RA_OF_ASC_NODE": 317.7836, "ARG_OF_PERICENTER": 71.0972, "MEAN_ANOMALY": 355.7631, "EPHEMERIS_TYPE": 0, "CLASSIFICATION_TYPE": "U", "NORAD_CAT_ID": 35026, "ELEMENT_SET_NO": 999, "REV_AT_EPOCH": 88151, "BSTAR": 0.0001179875, "MEAN_MOTION_DOT": 4.86e-06, "MEAN_MOTION_DDOT": 0}, "tle": {"line1": "1 35026U 93036AGP 25347.27906545  .00000486  00000+0  11799-3 0  9993", "line2": "2 35026  74.0467 317.7836 0082322  71.0972 355.7631 14.53623986881514"}}, "geometry": {"type": "Point", "coordinates": [139.1135432079, -13.186242240294147]}}, {"type": "Feature", "properties": {"norad_id": 35028, "name": "COSMOS 2251 DEB", "group": "cosmos-2251-debris", "lat": -34.19469658294358, "lon": -103.78312921809814, "alt_km": 695.8378820063781, "timestamp": "2025-12-14T14:39:29.764935+00:00", "meta": {"OBJECT_NAME": "COSMOS 2251 DEB", "OBJECT_ID": "1993-036AGR", "EPOCH": "2025-12-13T04:31:14.272896", "MEAN_MOTION": 14.56570709, "ECCENTRICITY": 0.00824622, "INCLINATION": 74.0384, "RA_OF_ASC_NODE": 270.1287, "ARG_OF_PERICENTER": 43.6868, "MEAN_ANOMALY": 26.0271, "EPHEMERIS_TYPE": 0, "CLASSIFICATION_TYPE": "U", "NORAD_CAT_ID": 35028, "ELEMENT_SET_NO": 999, "REV_AT_EPOCH": 88292, "BSTAR": 0.0001683276, "MEAN_MOTION_DOT": 7.54e-06, "MEAN_MOTION_DDOT": 0}, "tle": {"line1": "1 35028U 93036AGR 25347.18835964  .00000754  00000+0  16833-3 0  9993", "line2": "2 35028  74.0384 270.1287 0082462  43.6868  26.0271 14.56570709882921"}}, "geometry": {"type": "Point", "coordinates": [-103.78312921809814, -34.19469658294358]}}, {"type": "Feature", "properties": {"norad_id": 35031, "name": "COSMOS 2251 DEB", "group": "cosmos-2251-debris", "lat": 61.58698715569063, "lon": 43.8788202661459, "alt_km": 765.4258732681774, "timestamp": "2025-12-14T14:39:29.764945+00:00", "meta": {"OBJECT_NAME": "COSMOS 2251 DEB", "OBJECT_ID": "1993-036AGU", "EPOCH": "2025-12-08T11:13:55.739136", "MEAN_MOTION": 14.3828637, "ECCENTRICITY": 0.00186752, "INCLINATION": 74.0383, "RA_OF_ASC_NODE": 267.1323, "ARG_OF_PERICENTER": 1.498, "MEAN_ANOMALY": 358.6226, "EPHEMERIS_TYPE": 0, "CLASSIFICATION_TYPE": "U", "NORAD_CAT_ID": 35031, "ELEMENT_SET_NO": 999, "REV_AT_EPOCH": 65222, "BSTAR": 0.00036337037, "MEAN_MOTION_DOT": 1.081e-05, "MEAN_MOTION_DDOT": 0}, "tle": {"line1": "1 35031U 93036AGU 25342.46800624  .00001081  00000+0  36337-3 0  9993", "line2": "2 35031  74.0383 267.1323 0018675   1.4980 358.6226 14.38286370652223"}}, "geometry": {"type": "Point", "coordinates": [43.8788202661459, 61.58698715569063]}}, {"type": "Feature", "properties": {"norad_id": 35032, "name": "COSMOS 2251 DEB", "group": "cosmos-2251-debris", "lat": 59.81832386686158, "lon": 153.79563120112203, "alt_km": 698.1824483385371, "timestamp": "2025-12-14T14:39:29.764955+00:00", "meta": {"OBJECT_NAME": "COSMOS 2251 DEB", "OBJECT_ID": "1993-036AGV", "EPOCH": "2025-12-13T19:10:02.540928", "MEAN_MOTION": 14.58737452, "ECCENTRICITY": 0.00683243, "INCLINATION": 73.8522, "RA_OF_ASC_NODE": 5.2382, "ARG_OF_PERICENTER": 216.3766, "MEAN_ANOMALY": 317.0955, "EPHEMERIS_TYPE": 0, "CLASSIFICATION_TYPE": "U", "NORAD_CAT_ID": 35032, "ELEMENT_SET_NO": 999, "REV_AT_EPOCH": 87689, "BSTAR": 0.0010899533, "MEAN_MOTION_DOT": 5.227e-05, "MEAN_MOTION_DDOT": 0}, "tle": {"line1": "1 35032U 93036AGV 25347.79864052  .00005227  00000+0  10900-2 0  9993", "line2": "2 35032  73.8522   5.2382 0068324 216.3766 317.0955 14.58737452876890"}}, "geometry": {"type": "Point", "coordinates": [153.79563120112203, 59.81832386686158]}}, {"type": "Feature", "properties": {"norad_id": 35033, "name": "COSMOS 2251 DEB", "group": "cosmos-2251-debris", "lat": 73.8485817113374, "lon": -105.41419549117668, "alt_km": 725.201810816181, "timestamp": "2025-12-14T14:39:29.764965+00:00", "meta": {"OBJECT_NAME": "COSMOS 2251 DEB", "OBJECT_ID": "1993-036AGW", "EPOCH": "2025-12-12T19:13:51.745440", "MEAN_MOTION": 14.50928801, "ECCENTRICITY": 0.00144343, "INCLINATION": 74.0257, "RA_OF_ASC_NODE": 176.4611, "ARG_OF_PERICENTER": 282.9682, "MEAN_ANOMALY": 76.9867, "EPHEMERIS_TYPE": 0, "CLASSIFICATION_TYPE": "U", "NORAD_CAT_ID": 35033, "ELEMENT_SET_NO": 999, "REV_AT_EPOCH": 65928, "BSTAR": 0.0009932764, "MEAN_MOTION_DOT": 3.902e-05, "MEAN_MOTION_DDOT": 0}, "tle": {"line1": "1 35033U 93036AGW 25346.80129335  .00003902  00000+0  99328-3 0  9993", "line2": "2 35033  74.0257 176.4611 0014434 282.9682  76.9867 14.50928801659281"}}, "geometry": {"type": "Point", "coordinates": [-105.41419549117668, 73.8485817113374]}}]}